ONEWEB-0446             
1 51640U 22012U   25133.89731945 -.00000575  00000+0 -16830-2 0  9991
2 51640  87.8800 115.8993 0002150  92.3676 267.7698 13.10371611157031
ONEWEB-0448             
1 51641U 22012V   25133.90229532 -.00000637  00000+0 -18618-2 0  9993
2 51641  87.8802 115.8982 0002031  84.3625 275.7734 13.10372247157008
ONEWEB-0449             
1 51642U 22012W   25133.67820856 -.00000669  00000+0 -19525-2 0  9997
2 51642  87.8797 115.9200 0002334  76.0758 284.0629 13.10375632156980
ONEWEB-0451             
1 51643U 22012X   25133.86051899  .00000074  00000+0  15824-3 0  9999
2 51643  87.9047  85.3473 0002192  79.3968 280.7411 13.17647542161070
ONEWEB-0452             
1 51644U 22012Y   25134.16257464  .00000061  00000+0  12264-3 0  9991
2 51644  87.9053  85.3472 0002118  73.3409 286.7955 13.17651045162421
ONEWEB-0456             
1 51646U 22012AA  25133.91725694 -.00000068  00000+0 -23103-3 0  9993
2 51646  87.8795 115.8324 0001830  89.2051 270.9286 13.10375987157055
ONEWEB-0457             
1 51647U 22012AB  25134.19943021 -.00000533  00000+0 -15632-2 0  9995
2 51647  87.8800 115.8280 0002404  84.3543 275.7859 13.10370060158398
ONEWEB-0458             
1 51648U 22012AC  25133.91558053 -.00000265  00000+0 -79678-3 0  9995
2 51648  87.8788 115.8708 0001998  82.4651 277.6703 13.10377105158313
